GLOBALSTAR M063         
1 26081U 00008A   24204.61047203  .00000033  00000+0  16979-2 0  9999
2 26081  51.9938 259.5524 0004356  45.6501 111.2843 11.86158466118461
GLOBALSTAR M062         
1 26082U 00008B   24204.89276973 -.00000135  00000+0 -26169-3 0  9996
2 26082  51.9873 344.1203 0007776 127.8349  12.9195 12.43440142118159
GLOBALSTAR M060         
1 26083U 00008C   24205.21722282 -.00000041  00000+0  49977-3 0  9990
2 26083  52.0005 256.6352 0003684 177.6176 224.4319 12.17637240112460
GLOBALSTAR M064         
1 26084U 00008D   24204.89216976 -.00000082  00000+0  23522-4 0  9996
2 26084  52.0053   1.5186 0002133 127.4267 232.6760 11.88520401127945
GLOBALSTAR M065         
1 31571U 07020A   24205.15281365 -.00000075  00000+0  15860-3 0  9995
2 31571  51.9881 147.7152 0009894 300.9432 161.2093 12.61974642792168
GLOBALSTAR M069         
1 31573U 07020C   24204.72639425 -.00000051  00000+0  29447-3 0  9993
2 31573  51.9949 104.7932 0000954  35.3814 353.3190 12.62277668792948
GLOBALSTAR M072         
1 31574U 07020D   24204.89159377 -.00000089  00000+0  84477-4 0  9991
2 31574  52.0057 200.2634 0000501 296.4602 140.6545 12.62260368791236
GLOBALSTAR M071         
1 31576U 07020F   24204.92274659 -.00000038  00000+0  36659-3 0  9990
2 31576  52.0065 109.3918 0001052  62.7640  16.5598 12.62270446454153
